NORAD_CAT_ID,OBJECT_NAME,OBJECT_TYPE,EPOCH,MEAN_MOTION,ECCENTRICITY,INCLINATION,RA_OF_ASC_NODE,ARG_OF_PERICENTER,MEAN_ANOMALY,BSTAR,MEAN_MOTION_DOT,MEAN_MOTION_DDOT,TLE_LINE0,TLE_LINE1,TLE_LINE2,SEMIMAJOR_AXIS,PERIOD,APOGEE,PERIGEE,DECAYED
49739.0,STARLINK-3155,PAYLOAD,2022-05-21 14:00:01,15.0886443,0.0002257,53.213,270.572,28.6745,247.6566,-0.0023491,-0.00037506,0.0,0 STARLINK-3155,1 49739U 21115R   22141.58335648 -.00037506  00000-0 -23491-2 0  9998,2 49739  53.2130 270.5720 0002257  28.6745 247.6566 15.08864430  1308,6917.806,95.436,541.232,538.109,0.0
49739.0,STARLINK-3155,PAYLOAD,2022-05-21 22:00:00,15.08860921,0.0002352,53.2124,269.0756,26.4004,261.4847,-0.0028839,-0.00045922,0.0,0 STARLINK-3155,1 49739U 21115R   22141.91667824 -.00045922  00000-0 -28839-2 0  9991,2 49739  53.2124 269.0756 0002352  26.4004 261.4847 15.08860921 26992,6917.816,95.436,541.309,538.054,0.0
49739.0,STARLINK-3155,PAYLOAD,2022-05-22 14:00:01,15.08857989,0.0002335,53.2124,266.0827,30.2361,280.8174,-0.0036578,-0.00058065,0.0,0 STARLINK-3155,1 49739U 21115R   22142.58334491 -.00058065  00000-0 -36578-2 0  9997,2 49739  53.2124 266.0827 0002335  30.2361 280.8174 15.08857989 27098,6917.825,95.436,541.306,538.075,0.0
49739.0,STARLINK-3155,PAYLOAD,2022-05-22 22:00:01,15.08843985,0.0002446,53.212,264.586,28.3643,294.3612,-0.0027493,-0.00043785,0.0,0 STARLINK-3155,1 49739U 21115R   22142.91668981 -.00043785  00000-0 -27493-2 0  9997,2 49739  53.2120 264.5860 0002446  28.3643 294.3612 15.08843985 27142,6917.868,95.437,541.425,538.0409999999998,0.0
49739.0,STARLINK-3155,PAYLOAD,2022-05-23 14:00:01,15.08841743,0.0002464,53.2122,261.5931,31.8198,313.9807,-0.0016885,-0.00027063,0.0,0 STARLINK-3155,1 49739U 21115R   22143.58334491 -.00027063  00000-0 -16885-2 0  9991,2 49739  53.2122 261.5931 0002464  31.8198 313.9807 15.08841743  1308,6917.875,95.437,541.445,538.035,0.0
49739.0,STARLINK-3155,PAYLOAD,2022-05-23 16:00:00,15.08838264,0.0002513,53.2123,261.2193,31.0809,47.6174,-0.0016105,-0.00025828,0.0,0 STARLINK-3155,1 49739U 21115R   22143.66667824 -.00025828  00000-0 -16105-2 0  9991,2 49739  53.2123 261.2193 0002513  31.0809  47.6174 15.08838264 27256,6917.886,95.438,541.489,538.012,0.0
49739.0,STARLINK-3155,PAYLOAD,2022-05-23 22:00:01,15.08848096,0.000245,53.212,260.0963,27.4052,330.0486,-0.0041323,-0.00065475,0.0,0 STARLINK-3155,1 49739U 21115R   22143.91668981 -.00065475  00000-0 -41323-2 0  9996,2 49739  53.2120 260.0963 0002450  27.4052 330.0486 15.08848096  1301,6917.856,95.437,541.4159999999998,538.026,0.0
49739.0,STARLINK-3155,PAYLOAD,2022-05-24 13:54:37,15.08822914,0.0002516,53.216,257.1194,34.5214,325.5941,-7.0472e-05,-1.409e-05,0.0,0 STARLINK-3155,1 49739U 21115R   22144.57959501 -.00001409  00000-0 -70472-4 0  9996,2 49739  53.2160 257.1194 0002516  34.5214 325.5941 15.08822914 26280,6917.933000000001,95.439,541.538,538.057,0.0
49739.0,STARLINK-3155,PAYLOAD,2022-05-24 22:00:00,15.08837317,0.0002494,53.2125,255.6066,27.3899,4.6838,-0.0010022,-0.00016203,0.0,0 STARLINK-3155,1 49739U 21115R   22144.91667824 -.00016203  00000-0 -10022-2 0  9999,2 49739  53.2125 255.6066 0002494  27.3899   4.6838 15.08837317 27448,6917.889,95.438,541.479,538.028,0.0
49739.0,STARLINK-3155,PAYLOAD,2022-05-25 14:00:01,15.08866929,0.0002555,53.2131,252.6139,28.7414,26.5276,-0.001772,-0.00028402,0.0,0 STARLINK-3155,1 49739U 21115R   22145.58334491 -.00028402  00000-0 -17720-2 0  9990,2 49739  53.2131 252.6139 0002555  28.7414  26.5276 15.08866929 27540,6917.7980000000025,95.436,541.431,537.896,0.0
49739.0,STARLINK-3155,PAYLOAD,2022-05-25 18:31:32,15.08846292,0.0002504,53.2146,251.7659,33.624,326.491,0.000221,3.231e-05,0.0,0 STARLINK-3155,1 49739U 21115R   22145.77190268  .00003231  00000-0  22100-3 0  9993,2 49739  53.2146 251.7659 0002504  33.6240 326.4910 15.08846292 27570,6917.861,95.437,541.4580000000002,537.994,0.0
49739.0,STARLINK-3155,PAYLOAD,2022-05-26 12:00:47,15.08846887,0.000225,53.2135,248.496,29.1464,330.9653,0.00039499,6.005e-05,0.0,0 STARLINK-3155,1 49739U 21115R   22146.50054627  .00006005  00000-0  39499-3 0  9994,2 49739  53.2135 248.4960 0002250  29.1464 330.9653 15.08846887 27688,6917.859,95.437,541.281,538.168,0.0
49739.0,STARLINK-3155,PAYLOAD,2022-05-26 22:00:00,15.0885759,0.0002453,53.2136,246.6271,23.9604,77.7538,-0.0045865,-0.00072587,0.0,0 STARLINK-3155,1 49739U 21115R   22146.91667824 -.00072587  00000-0 -45865-2 0  9991,2 49739  53.2136 246.6271 0002453  23.9604  77.7538 15.08857590  1309,6917.8269999999975,95.436,541.389,537.995,0.0
49739.0,STARLINK-3155,PAYLOAD,2022-05-27 06:00:00,15.08803436,0.0002301,53.2139,245.1296,28.3254,84.9748,0.0023474,0.00037232,0.0,0 STARLINK-3155,1 49739U 21115R   22147.25001157  .00037232  00000-0  23474-2 0  9998,2 49739  53.2139 245.1296 0002301  28.3254  84.9748 15.08803436 27799,6917.9919999999975,95.44,541.4490000000002,538.265,0.0
49739.0,STARLINK-3155,PAYLOAD,2022-05-27 14:00:01,15.08818339,0.0002526,53.2139,243.6351,26.4111,98.4541,0.00041053,6.248e-05,0.0,0 STARLINK-3155,1 49739U 21115R   22147.58334491  .00006248  00000-0  41053-3 0  9991,2 49739  53.2139 243.6351 0002526  26.4111  98.4541 15.08818339  1302,6917.946999999999,95.439,541.559,538.064,0.0
49739.0,STARLINK-3155,PAYLOAD,2022-05-27 22:00:01,15.08845615,0.0002458,53.2135,242.1378,26.0832,110.4144,-0.001309,-0.00021065,0.0,0 STARLINK-3155,1 49739U 21115R   22147.91668981 -.00021065  00000-0 -13090-2 0  9997,2 49739  53.2135 242.1378 0002458  26.0832 110.4144 15.08845615 27894,6917.863,95.437,541.429,538.028,0.0
49739.0,STARLINK-3155,PAYLOAD,2022-05-28 14:00:01,15.08858301,0.0002536,53.2136,239.146,26.5871,133.0577,0.00014847,2.076e-05,0.0,0 STARLINK-3155,1 49739U 21115R   22148.58334491  .00002076  00000-0  14847-3 0  9998,2 49739  53.2136 239.1460 0002536  26.5871 133.0577 15.08858301 27996,6917.824000000001,95.436,541.444,537.935,0.0
49739.0,STARLINK-3155,PAYLOAD,2022-05-28 18:03:53,15.08856444,0.0002449,53.2134,238.3837,27.7848,332.3274,0.00075924,0.00011821,0.0,0 STARLINK-3155,1 49739U 21115R   22148.75270734  .00011821  00000-0  75924-3 0  9997,2 49739  53.2134 238.3837 0002449  27.7848 332.3274 15.08856444 26918,6917.83,95.437,541.389,538.001,0.0
49739.0,STARLINK-3155,PAYLOAD,2022-05-29 13:08:30,15.0885118,0.0002479,53.2131,234.8156,29.8341,330.2792,-0.00010658,-1.985e-05,0.0,0 STARLINK-3155,1 49739U 21115R   22149.54758005 -.00001985  00000-0 -10658-3 0  9992,2 49739  53.2131 234.8156 0002479  29.8341 330.2792 15.08851180 27032,6917.846,95.437,541.4259999999998,537.996,0.0
49739.0,STARLINK-3155,PAYLOAD,2022-05-29 17:54:40,15.08850987,0.0002516,53.2131,233.9235,30.2419,329.8718,3.3564e-05,2.46e-06,0.0,0 STARLINK-3155,1 49739U 21115R   22149.74629987  .00000246  00000-0  33564-4 0  9999,2 49739  53.2131 233.9235 0002516  30.2419 329.8718 15.08850987 27063,6917.847,95.437,541.452,537.971,0.0
49739.0,STARLINK-3155,PAYLOAD,2022-05-29 22:00:00,15.08808025,0.000237,53.2126,233.1592,23.2856,182.7848,-0.0014735,-0.00023643,0.0,0 STARLINK-3155,1 49739U 21115R   22149.91667824 -.00023643  00000-0 -14735-2 0  9995,2 49739  53.2126 233.1592 0002370  23.2856 182.7848 15.08808025 28191,6917.978,95.44,541.4830000000002,538.2040000000002,0.0
49739.0,STARLINK-3155,PAYLOAD,2022-05-30 05:02:22,15.08828248,0.0002435,53.2128,231.842,31.7459,328.36800000000005,-0.00036819,-6.142e-05,0.0,0 STARLINK-3155,1 49739U 21115R   22150.20998794 -.00006142  00000-0 -36819-3 0  9995,2 49739  53.2128 231.8420 0002435  31.7459 328.3680 15.08828248 28240,6917.916,95.438,541.466,538.097,0.0
49739.0,STARLINK-3155,PAYLOAD,2022-05-30 14:00:01,15.08823824,0.0002592,53.2132,230.1678,26.2576,202.9248,0.0018497,0.0002926,0.0,0 STARLINK-3155,1 49739U 21115R   22150.58334491  .00029260  00000-0  18497-2 0  9999,2 49739  53.2132 230.1678 0002592  26.2576 202.9248 15.08823824  1305,6917.93,95.439,541.5880000000002,538.002,0.0
49739.0,STARLINK-3155,PAYLOAD,2022-05-30 22:00:00,15.08854588,0.0002473,53.2136,228.6699,26.3184,214.4468,-0.0013215,-0.00021268,0.0,0 STARLINK-3155,1 49739U 21115R   22150.91667824 -.00021268  00000-0 -13215-2 0  9990,2 49739  53.2136 228.6699 0002473  26.3184 214.4468 15.08854588  1301,6917.8359999999975,95.437,541.4119999999998,537.99,0.0
49739.0,STARLINK-3155,PAYLOAD,2022-05-31 06:00:02,15.08863365,0.0002372,53.2142,227.1732,28.8625,223.5556,-0.0027248,-0.00043422,0.0,0 STARLINK-3155,1 49739U 21115R   22151.25002315 -.00043422  00000-0 -27248-2 0  9993,2 49739  53.2142 227.1732 0002372  28.8625 223.5556 15.08863365 28407,6917.809,95.436,541.315,538.033,0.0
49739.0,STARLINK-3155,PAYLOAD,2022-05-31 22:00:00,15.08841511,0.0002514,53.2141,224.1806,25.0954,250.444,-0.0010344,-0.00016715,0.0,0 STARLINK-3155,1 49739U 21115R   22151.91667824 -.00016715  00000-0 -10344-2 0  9992,2 49739  53.2141 224.1806 0002514  25.0954 250.4440 15.08841511 28508,6917.876,95.437,541.48,538.002,0.0
49739.0,STARLINK-3155,PAYLOAD,2022-06-01 14:00:01,15.08824846,0.0002739,53.2141,221.1892,26.3267,272.4021,0.0024347,0.00038659,0.0,0 STARLINK-3155,1 49739U 21115R   22152.58334491  .00038659  00000-0  24347-2 0  9994,2 49739  53.2141 221.1892 0002739  26.3267 272.4021 15.08824846 28602,6917.927,95.439,541.687,537.8969999999998,0.0
49739.0,STARLINK-3155,PAYLOAD,2022-06-01 20:00:01,15.0886472,0.0002653,53.2139,220.0659,26.093000000000004,191.3242,-0.0018476,-0.00029594,0.0,0 STARLINK-3155,1 49739U 21115R   22152.83334491 -.00029594  00000-0 -18476-2 0  9998,2 49739  53.2139 220.0659 0002653  26.0930 191.3242 15.08864720  1304,6917.805,95.436,541.505,537.835,0.0
49739.0,STARLINK-3155,PAYLOAD,2022-06-02 15:42:26,15.08848735,0.0002566,53.2144,216.3791,24.9518,335.1597,0.00013303,1.83e-05,0.0,0 STARLINK-3155,1 49739U 21115R   22153.65447444  .00001830  00000-0  13303-3 0  9998,2 49739  53.2144 216.3791 0002566  24.9518 335.1597 15.08848735 28765,6917.854,95.437,541.494,537.944,0.0
